[
    {
        "Altitude(m)": 564598.5929697357,
        "Argument of Periapsis(deg)": 0.019868973332140504,
        "Eccentricity": 0.0,
        "Inclination(deg)": 53.0,
        "Latitude(deg)": -35.316402616147585,
        "Longitude(deg)": 175.54980243108088,
        "Mean Anomaly(deg)": -46.08882139726729,
        "RAAN(deg)": 309.97043010558406,
        "Satellite Name": "Starlink Shell 1 1381",
        "Satellite Number": 1381,
        "Semi-Major Axis(m)": 6931778.249405717,
        "Time(s)": 570
    },
    {
        "Altitude(m)": 564425.917908111,
        "Argument of Periapsis(deg)": 0.02021755181165174,
        "Eccentricity": 0.0,
        "Inclination(deg)": 53.0,
        "Latitude(deg)": -34.890392243278846,
        "Longitude(deg)": 176.0687082550676,
        "Mean Anomaly(deg)": -45.46199019371059,
        "RAAN(deg)": 309.96991133550654,
        "Satellite Name": "Starlink Shell 1 1381",
        "Satellite Number": 1381,
        "Semi-Major Axis(m)": 6931778.249405717,
        "Time(s)": 580
    },
    {
        "Altitude(m)": 564252.6719584219,
        "Argument of Periapsis(deg)": 0.020566130291162974,
        "Eccentricity": 0.0,
        "Inclination(deg)": 53.0,
        "Latitude(deg)": -34.46178530798228,
        "Longitude(deg)": 176.58186385143043,
        "Mean Anomaly(deg)": -44.835158990153744,
        "RAAN(deg)": 309.96939256542913,
        "Satellite Name": "Starlink Shell 1 1381",
        "Satellite Number": 1381,
        "Semi-Major Axis(m)": 6931778.249405717,
        "Time(s)": 590
    },
    {
        "Altitude(m)": 564078.9213791643,
        "Argument of Periapsis(deg)": 0.020914708770674213,
        "Eccentricity": 0.0,
        "Inclination(deg)": 53.0,
        "Latitude(deg)": -34.03064731678288,
        "Longitude(deg)": 177.08938500622915,
        "Mean Anomaly(deg)": -44.208327786597096,
        "RAAN(deg)": 309.96887379535167,
        "Satellite Name": "Starlink Shell 1 1381",
        "Satellite Number": 1381,
        "Semi-Major Axis(m)": 6931778.249405717,
        "Time(s)": 600
    },
    {
        "Altitude(m)": 563904.7325086809,
        "Argument of Periapsis(deg)": 0.021263287250185448,
        "Eccentricity": 0.0,
        "Inclination(deg)": 53.0,
        "Latitude(deg)": -33.59704230243614,
        "Longitude(deg)": 177.59138665095847,
        "Mean Anomaly(deg)": -43.581496583040405,
        "RAAN(deg)": 309.96835502527415,
        "Satellite Name": "Starlink Shell 1 1381",
        "Satellite Number": 1381,
        "Semi-Major Axis(m)": 6931778.249405717,
        "Time(s)": 610
    },
    {
        "Altitude(m)": 563730.1717354903,
        "Argument of Periapsis(deg)": 0.021611865729696686,
        "Eccentricity": 0.0,
        "Inclination(deg)": 53.0,
        "Latitude(deg)": -33.16103285587764,
        "Longitude(deg)": 178.0879832962284,
        "Mean Anomaly(deg)": -42.95466537948361,
        "RAAN(deg)": 309.96783625519674,
        "Satellite Name": "Starlink Shell 1 1381",
        "Satellite Number": 1381,
        "Semi-Major Axis(m)": 6931778.249405717,
        "Time(s)": 620
    },
    {
        "Altitude(m)": 563555.3054686225,
        "Argument of Periapsis(deg)": 0.02196044420920792,
        "Eccentricity": 0.0,
        "Inclination(deg)": 53.0,
        "Latitude(deg)": -32.7226801584203,
        "Longitude(deg)": 178.57928779213475,
        "Mean Anomaly(deg)": -42.32783417592691,
        "RAAN(deg)": 309.9673174851192,
        "Satellite Name": "Starlink Shell 1 1381",
        "Satellite Number": 1381,
        "Semi-Major Axis(m)": 6931778.249405717,
        "Time(s)": 630
    },
    {
        "Altitude(m)": 563380.2001079267,
        "Argument of Periapsis(deg)": 0.02230902268871916,
        "Eccentricity": 0.0,
        "Inclination(deg)": 53.0,
        "Latitude(deg)": -32.28204401411077,
        "Longitude(deg)": 179.06541261726844,
        "Mean Anomaly(deg)": -41.70100297237021,
        "RAAN(deg)": 309.96679871504176,
        "Satellite Name": "Starlink Shell 1 1381",
        "Satellite Number": 1381,
        "Semi-Major Axis(m)": 6931778.249405717,
        "Time(s)": 640
    },
    {
        "Altitude(m)": 563204.9220143503,
        "Argument of Periapsis(deg)": 0.022657601168230398,
        "Eccentricity": 0.0,
        "Inclination(deg)": 53.0,
        "Latitude(deg)": -31.839182882151842,
        "Longitude(deg)": 179.5464686529946,
        "Mean Anomaly(deg)": -41.074171768813514,
        "RAAN(deg)": 309.9662799449643,
        "Satellite Name": "Starlink Shell 1 1381",
        "Satellite Number": 1381,
        "Semi-Major Axis(m)": 6931778.249405717,
        "Time(s)": 650
    },
    {
        "Altitude(m)": 563029.5374802337,
        "Argument of Periapsis(deg)": 0.023006179647741636,
        "Eccentricity": 0.0,
        "Inclination(deg)": 53.0,
        "Latitude(deg)": -31.39415390931887,
        "Longitude(deg)": -179.97743435500993,
        "Mean Anomaly(deg)": -40.44734056525682,
        "RAAN(deg)": 309.9657611748868,
        "Satellite Name": "Starlink Shell 1 1381",
        "Satellite Number": 1381,
        "Semi-Major Axis(m)": 6931778.249405717,
        "Time(s)": 660
    },
    {
        "Altitude(m)": 562854.1126996517,
        "Argument of Periapsis(deg)": 0.023354758127252868,
        "Eccentricity": 0.0,
        "Inclination(deg)": 53.0,
        "Latitude(deg)": -30.94701296229659,
        "Longitude(deg)": -179.5061873293476,
        "Mean Anomaly(deg)": -39.820509361700076,
        "RAAN(deg)": 309.9652424048093,
        "Satellite Name": "Starlink Shell 1 1381",
        "Satellite Number": 1381,
        "Semi-Major Axis(m)": 6931778.249405717,
        "Time(s)": 670
    },
    {
        "Altitude(m)": 562678.7137387383,
        "Argument of Periapsis(deg)": 0.023703336606764106,
        "Eccentricity": 0.0,
        "Inclination(deg)": 53.0,
        "Latitude(deg)": -30.49781465987162,
        "Longitude(deg)": -179.0396829008922,
        "Mean Anomaly(deg)": -39.193678158143435,
        "RAAN(deg)": 309.96472363473185,
        "Satellite Name": "Starlink Shell 1 1381",
        "Satellite Number": 1381,
        "Semi-Major Axis(m)": 6931778.249405717,
        "Time(s)": 680
    },
    {
        "Altitude(m)": 562503.4065060964,
        "Argument of Periapsis(deg)": 0.024051915086275345,
        "Eccentricity": 0.0,
        "Inclination(deg)": 53.0,
        "Latitude(deg)": -30.04661240492707,
        "Longitude(deg)": -178.57781493081222,
        "Mean Anomaly(deg)": -38.56684695458674,
        "RAAN(deg)": 309.9642048646544,
        "Satellite Name": "Starlink Shell 1 1381",
        "Satellite Number": 1381,
        "Semi-Major Axis(m)": 6931778.249405717,
        "Time(s)": 690
    },
    {
        "Altitude(m)": 562328.2567232633,
        "Argument of Periapsis(deg)": 0.024400493565786583,
        "Eccentricity": 0.0,
        "Inclination(deg)": 53.0,
        "Latitude(deg)": -29.593458416188625,
        "Longitude(deg)": -178.1204780278597,
        "Mean Anomaly(deg)": -37.94001575102989,
        "RAAN(deg)": 309.9636860945769,
        "Satellite Name": "Starlink Shell 1 1381",
        "Satellite Number": 1381,
        "Semi-Major Axis(m)": 6931778.249405717,
        "Time(s)": 700
    },
    {
        "Altitude(m)": 562153.3298952553,
        "Argument of Periapsis(deg)": 0.024749072045297815,
        "Eccentricity": 0.0,
        "Inclination(deg)": 53.0,
        "Latitude(deg)": -29.138403759672734,
        "Longitude(deg)": -177.667568574137,
        "Mean Anomaly(deg)": -37.31318454747324,
        "RAAN(deg)": 309.96316732449947,
        "Satellite Name": "Starlink Shell 1 1381",
        "Satellite Number": 1381,
        "Semi-Major Axis(m)": 6931778.249405717,
        "Time(s)": 710
    },
    {
        "Altitude(m)": 561978.6912811875,
        "Argument of Periapsis(deg)": 0.025097650524809053,
        "Eccentricity": 0.0,
        "Inclination(deg)": 53.0,
        "Latitude(deg)": -28.68149837980211,
        "Longitude(deg)": -177.21898423391477,
        "Mean Anomaly(deg)": -36.686353343916494,
        "RAAN(deg)": 309.962648554422,
        "Satellite Name": "Starlink Shell 1 1381",
        "Satellite Number": 1381,
        "Semi-Major Axis(m)": 6931778.249405717,
        "Time(s)": 720
    },
    {
        "Altitude(m)": 561804.405865009,
        "Argument of Periapsis(deg)": 0.02544622900432029,
        "Eccentricity": 0.0,
        "Inclination(deg)": 53.0,
        "Latitude(deg)": -28.222791130154434,
        "Longitude(deg)": -176.7746234586834,
        "Mean Anomaly(deg)": -36.0595221403598,
        "RAAN(deg)": 309.9621297843445,
        "Satellite Name": "Starlink Shell 1 1381",
        "Satellite Number": 1381,
        "Semi-Major Axis(m)": 6931778.249405717,
        "Time(s)": 730
    },
    {
        "Altitude(m)": 561630.5383263641,
        "Argument of Periapsis(deg)": 0.02579480748383153,
        "Eccentricity": 0.0,
        "Inclination(deg)": 53.0,
        "Latitude(deg)": -27.762329803807088,
        "Longitude(deg)": -176.3343865015913,
        "Mean Anomaly(deg)": -35.432690936803056,
        "RAAN(deg)": 309.961611014267,
        "Satellite Name": "Starlink Shell 1 1381",
        "Satellite Number": 1381,
        "Semi-Major Axis(m)": 6931778.249405717,
        "Time(s)": 740
    },
    {
        "Altitude(m)": 561457.1530115753,
        "Argument of Periapsis(deg)": 0.026143385963342765,
        "Eccentricity": 0.0,
        "Inclination(deg)": 53.0,
        "Latitude(deg)": -27.300161163261205,
        "Longitude(deg)": -175.8981749157995,
        "Mean Anomaly(deg)": -34.805859733246415,
        "RAAN(deg)": 309.96109224418956,
        "Satellite Name": "Starlink Shell 1 1381",
        "Satellite Number": 1381,
        "Semi-Major Axis(m)": 6931778.249405717,
        "Time(s)": 750
    }
]